ONEWEB-0320             
1 49190U 21083E   24158.14009983  .00000072  00000+0  15045-3 0  9997
2 49190  87.9135 122.9859 0002060  82.8049 277.3317 13.18688167133593
ONEWEB-0321             
1 49191U 21083F   24158.14800581  .00000089  00000+0  18695-3 0  9993
2 49191  87.9225  61.8794 0002238  80.0343 280.1042 13.20769850140291
ONEWEB-0322             
1 49192U 21083G   24157.56589399 -.00000016  00000+0 -78418-4 0  9992
2 49192  87.8926 107.8639 0002541  79.0369 281.1046 13.13469207133563
ONEWEB-0324             
1 49193U 21083H   24157.89826286 -.00000024  00000+0 -93095-4 0  9995
2 49193  87.9135 123.0159 0001936  76.5091 283.6257 13.18684477132300
ONEWEB-0325             
1 49194U 21083J   24157.90298956  .00000580  00000+0  14369-2 0  9995
2 49194  87.9098 123.0325 0001422 104.6935 255.4355 13.18699647132316
ONEWEB-0326             
1 49195U 21083K   24157.61371981  .00000054  00000+0  10352-3 0  9999
2 49195  87.9134 123.0854 0001495  84.6984 275.4318 13.18684354132260
ONEWEB-0327             
1 49196U 21083L   24157.66351516  .00000005  00000+0 -20536-4 0  9990
2 49196  87.9134 123.0876 0001684  88.5978 271.5347 13.18687274132297
ONEWEB-0328             
1 49197U 21083M   24158.08961855  .00000285  00000+0  74497-3 0  9994
2 49197  87.8915 107.7454 0001988  78.3460 281.7892 13.13468997134907
